[{"OBJECT_NAME":"FLOCK 4BE-34","OBJECT_ID":"2024-149AD","EPOCH":"2026-03-03T05:02:27.468960","MEAN_MOTION":15.37705579,"ECCENTRICITY":0.0002287,"INCLINATION":97.3837,"RA_OF_ASC_NODE":145.7707,"ARG_OF_PERICENTER":296.1486,"MEAN_ANOMALY":63.9523,"EPHEMERIS_TYPE":0,"CLASSIFICATION_TYPE":"U","NORAD_CAT_ID":60495,"ELEMENT_SET_NO":999,"REV_AT_EPOCH":8602,"BSTAR":0.00053716,"MEAN_MOTION_DOT":0.00019835,"MEAN_MOTION_DDOT":0},{"OBJECT_NAME":"FLOCK 4BE-32","OBJECT_ID":"2024-149AF","EPOCH":"2026-03-03T03:57:38.916864","MEAN_MOTION":15.38140529,"ECCENTRICITY":0.0002626,"INCLINATION":97.3778,"RA_OF_ASC_NODE":145.2321,"ARG_OF_PERICENTER":294.498,"MEAN_ANOMALY":65.5991,"EPHEMERIS_TYPE":0,"CLASSIFICATION_TYPE":"U","NORAD_CAT_ID":60497,"ELEMENT_SET_NO":999,"REV_AT_EPOCH":8601,"BSTAR":0.00063536,"MEAN_MOTION_DOT":0.00023823,"MEAN_MOTION_DDOT":0},{"OBJECT_NAME":"FLOCK 4BE-30","OBJECT_ID":"2024-149AH","EPOCH":"2026-03-03T04:12:38.052288","MEAN_MOTION":15.37970357,"ECCENTRICITY":0.0001976,"INCLINATION":97.3859,"RA_OF_ASC_NODE":145.7996,"ARG_OF_PERICENTER":293.5337,"MEAN_ANOMALY":66.57,"EPHEMERIS_TYPE":0,"CLASSIFICATION_TYPE":"U","NORAD_CAT_ID":60499,"ELEMENT_SET_NO":999,"REV_AT_EPOCH":8539,"BSTAR":0.00057099,"MEAN_MOTION_DOT":0.00021275,"MEAN_MOTION_DDOT":0},{"OBJECT_NAME":"FLOCK 4BE-11","OBJECT_ID":"2024-149AK","EPOCH":"2026-03-03T03:38:46.829760","MEAN_MOTION":15.38949996,"ECCENTRICITY":0.000301,"INCLINATION":97.3762,"RA_OF_ASC_NODE":145.3435,"ARG_OF_PERICENTER":293.3365,"MEAN_ANOMALY":66.7564,"EPHEMERIS_TYPE":0,"CLASSIFICATION_TYPE":"U","NORAD_CAT_ID":60501,"ELEMENT_SET_NO":999,"REV_AT_EPOCH":8602,"BSTAR":0.0006297,"MEAN_MOTION_DOT":0.00024242,"MEAN_MOTION_DDOT":0},{"OBJECT_NAME":"FLOCK 4BE-24","OBJECT_ID":"2024-149AP","EPOCH":"2026-03-03T04:45:06.397344","MEAN_MOTION":15.38823416,"ECCENTRICITY":0.0002912,"INCLINATION":97.3777,"RA_OF_ASC_NODE":145.6357,"ARG_OF_PERICENTER":304.598,"MEAN_ANOMALY":55.4991,"EPHEMERIS_TYPE":0,"CLASSIFICATION_TYPE":"U","NORAD_CAT_ID":60505,"ELEMENT_SET_NO":999,"REV_AT_EPOCH":8604,"BSTAR":0.00061553,"MEAN_MOTION_DOT":0.00023595,"MEAN_MOTION_DDOT":0},{"OBJECT_NAME":"TANAGER-1","OBJECT_ID":"2024-149AR","EPOCH":"2026-03-03T05:03:02.470464","MEAN_MOTION":15.43535761,"ECCENTRICITY":0.0007213,"INCLINATION":97.3799,"RA_OF_ASC_NODE":155.4968,"ARG_OF_PERICENTER":219.2528,"MEAN_ANOMALY":140.8197,"EPHEMERIS_TYPE":0,"CLASSIFICATION_TYPE":"U","NORAD_CAT_ID":60507,"ELEMENT_SET_NO":999,"REV_AT_EPOCH":8668,"BSTAR":0.00011423,"MEAN_MOTION_DOT":5.039e-5,"MEAN_MOTION_DDOT":0},{"OBJECT_NAME":"FLOCK 4BE-29","OBJECT_ID":"2024-149AT","EPOCH":"2026-03-03T03:57:39.929472","MEAN_MOTION":15.40079781,"ECCENTRICITY":0.0002059,"INCLINATION":97.386,"RA_OF_ASC_NODE":146.7298,"ARG_OF_PERICENTER":325.6049,"MEAN_ANOMALY":34.5063,"EPHEMERIS_TYPE":0,"CLASSIFICATION_TYPE":"U","NORAD_CAT_ID":60509,"ELEMENT_SET_NO":999,"REV_AT_EPOCH":8607,"BSTAR":0.00064385,"MEAN_MOTION_DOT":0.00025726,"MEAN_MOTION_DDOT":0},{"OBJECT_NAME":"FLOCK 4BE-2","OBJECT_ID":"2024-149AV","EPOCH":"2026-03-03T05:00:26.719776","MEAN_MOTION":15.42501428,"ECCENTRICITY":0.0002639,"INCLINATION":97.3864,"RA_OF_ASC_NODE":147.3271,"ARG_OF_PERICENTER":301.8445,"MEAN_ANOMALY":58.2545,"EPHEMERIS_TYPE":0,"CLASSIFICATION_TYPE":"U","NORAD_CAT_ID":60511,"ELEMENT_SET_NO":999,"REV_AT_EPOCH":8611,"BSTAR":0.0011601,"MEAN_MOTION_DOT":0.00050462,"MEAN_MOTION_DDOT":0},{"OBJECT_NAME":"FLOCK 4BE-13","OBJECT_ID":"2024-149AW","EPOCH":"2026-03-03T04:52:17.689728","MEAN_MOTION":15.38514566,"ECCENTRICITY":0.0003464,"INCLINATION":97.3776,"RA_OF_ASC_NODE":145.7449,"ARG_OF_PERICENTER":295.2729,"MEAN_ANOMALY":64.8157,"EPHEMERIS_TYPE":0,"CLASSIFICATION_TYPE":"U","NORAD_CAT_ID":60512,"ELEMENT_SET_NO":999,"REV_AT_EPOCH":8605,"BSTAR":0.00057556,"MEAN_MOTION_DOT":0.00021833,"MEAN_MOTION_DDOT":0},{"OBJECT_NAME":"FLOCK 4BE-27","OBJECT_ID":"2024-149AX","EPOCH":"2026-03-03T03:48:23.890176","MEAN_MOTION":15.32412167,"ECCENTRICITY":0.0003054,"INCLINATION":97.3884,"RA_OF_ASC_NODE":144.0955,"ARG_OF_PERICENTER":338.2799,"MEAN_ANOMALY":21.8313,"EPHEMERIS_TYPE":0,"CLASSIFICATION_TYPE":"U","NORAD_CAT_ID":60513,"ELEMENT_SET_NO":999,"REV_AT_EPOCH":8589,"BSTAR":0.00040799,"MEAN_MOTION_DOT":0.00012699,"MEAN_MOTION_DDOT":0},{"OBJECT_NAME":"FLOCK 4BE-9","OBJECT_ID":"2024-149AY","EPOCH":"2026-03-03T04:23:54.825216","MEAN_MOTION":15.37308591,"ECCENTRICITY":0.0001684,"INCLINATION":97.3848,"RA_OF_ASC_NODE":145.6792,"ARG_OF_PERICENTER":334.6546,"MEAN_ANOMALY":25.4615,"EPHEMERIS_TYPE":0,"CLASSIFICATION_TYPE":"U","NORAD_CAT_ID":60514,"ELEMENT_SET_NO":999,"REV_AT_EPOCH":8601,"BSTAR":0.00053282,"MEAN_MOTION_DOT":0.00019422,"MEAN_MOTION_DDOT":0},{"OBJECT_NAME":"FLOCK 4BE-6","OBJECT_ID":"2024-149BA","EPOCH":"2026-03-03T04:52:09.412608","MEAN_MOTION":15.36358812,"ECCENTRICITY":0.0002369,"INCLINATION":97.385,"RA_OF_ASC_NODE":145.2335,"ARG_OF_PERICENTER":323.5846,"MEAN_ANOMALY":36.5236,"EPHEMERIS_TYPE":0,"CLASSIFICATION_TYPE":"U","NORAD_CAT_ID":60516,"ELEMENT_SET_NO":999,"REV_AT_EPOCH":8598,"BSTAR":0.00049791,"MEAN_MOTION_DOT":0.00017594,"MEAN_MOTION_DDOT":0},{"OBJECT_NAME":"FLOCK 4BE-14","OBJECT_ID":"2024-149BB","EPOCH":"2026-03-03T04:56:31.996032","MEAN_MOTION":15.37395784,"ECCENTRICITY":0.0003236,"INCLINATION":97.376,"RA_OF_ASC_NODE":145.3063,"ARG_OF_PERICENTER":319.5079,"MEAN_ANOMALY":40.5924,"EPHEMERIS_TYPE":0,"CLASSIFICATION_TYPE":"U","NORAD_CAT_ID":60517,"ELEMENT_SET_NO":999,"REV_AT_EPOCH":8602,"BSTAR":0.00054889,"MEAN_MOTION_DOT":0.0002007,"MEAN_MOTION_DDOT":0},{"OBJECT_NAME":"FLOCK 4BE-1","OBJECT_ID":"2024-149BC","EPOCH":"2026-03-03T04:37:43.674240","MEAN_MOTION":15.38648311,"ECCENTRICITY":0.0003156,"INCLINATION":97.3835,"RA_OF_ASC_NODE":146.2185,"ARG_OF_PERICENTER":315.7347,"MEAN_ANOMALY":44.3646,"EPHEMERIS_TYPE":0,"CLASSIFICATION_TYPE":"U","NORAD_CAT_ID":60518,"ELEMENT_SET_NO":999,"REV_AT_EPOCH":8605,"BSTAR":0.00061219,"MEAN_MOTION_DOT":0.00023333,"MEAN_MOTION_DDOT":0},{"OBJECT_NAME":"FLOCK 4BE-28","OBJECT_ID":"2024-149BD","EPOCH":"2026-03-03T03:54:17.603136","MEAN_MOTION":15.40637007,"ECCENTRICITY":0.0003556,"INCLINATION":97.3801,"RA_OF_ASC_NODE":146.6057,"ARG_OF_PERICENTER":314.6766,"MEAN_ANOMALY":45.419,"EPHEMERIS_TYPE":0,"CLASSIFICATION_TYPE":"U","NORAD_CAT_ID":60519,"ELEMENT_SET_NO":999,"REV_AT_EPOCH":8609,"BSTAR":0.0006225,"MEAN_MOTION_DOT":0.00025333,"MEAN_MOTION_DDOT":0},{"OBJECT_NAME":"FLOCK 4BE-35","OBJECT_ID":"2024-149CU","EPOCH":"2026-03-03T03:48:01.434816","MEAN_MOTION":15.42227503,"ECCENTRICITY":0.0004388,"INCLINATION":97.3807,"RA_OF_ASC_NODE":145.3186,"ARG_OF_PERICENTER":278.5011,"MEAN_ANOMALY":81.5739,"EPHEMERIS_TYPE":0,"CLASSIFICATION_TYPE":"U","NORAD_CAT_ID":60558,"ELEMENT_SET_NO":999,"REV_AT_EPOCH":8599,"BSTAR":0.0021929,"MEAN_MOTION_DOT":0.00095157,"MEAN_MOTION_DDOT":0},{"OBJECT_NAME":"FLOCK 4BE-5","OBJECT_ID":"2024-149CV","EPOCH":"2026-03-03T03:37:20.133408","MEAN_MOTION":15.366843,"ECCENTRICITY":0.0002482,"INCLINATION":97.3897,"RA_OF_ASC_NODE":145.3826,"ARG_OF_PERICENTER":324.3222,"MEAN_ANOMALY":35.7856,"EPHEMERIS_TYPE":0,"CLASSIFICATION_TYPE":"U","NORAD_CAT_ID":60559,"ELEMENT_SET_NO":999,"REV_AT_EPOCH":8597,"BSTAR":0.00065266,"MEAN_MOTION_DOT":0.00023347,"MEAN_MOTION_DDOT":0}]
